IRIDIUM 7               
1 24793U 97020B   24152.56555328  .00000664  00000+0  22542-3 0  9999
2 24793  86.3952 336.7973 0001917  83.7726 276.3689 14.35234854417146
IRIDIUM 5               
1 24795U 97020D   24152.33433852  .00006609  00000+0  62498-3 0  9992
2 24795  86.3916 258.7331 0123618  62.9031 298.4742 14.87802623428598
IRIDIUM 911             
1 24842U 97030G   24152.56660888  .00000888  00000+0  24099-3 0  9990
2 24842  86.4473   4.7241 0012297 293.9642  66.0272 14.46552054419898
IRIDIUM 17              
1 24870U 97034B   24152.22039946  .00000641  00000+0  20978-3 0  9992
2 24870  86.3982  35.3198 0002569 125.6028 234.5409 14.37006857408712
IRIDIUM 920             
1 24871U 97034C   24152.62003354  .00000634  00000+0  19231-3 0  9993
2 24871  86.3994  15.2748 0009414 259.3354 100.6785 14.40724034411629
